OBJECT_NAME,OBJECT_ID,EPOCH,MEAN_MOTION,ECCENTRICITY,INCLINATION,RA_OF_ASC_NODE,ARG_OF_PERICENTER,MEAN_ANOMALY,EPHEMERIS_TYPE,CLASSIFICATION_TYPE,NORAD_CAT_ID,ELEMENT_SET_NO,REV_AT_EPOCH,BSTAR,MEAN_MOTION_DOT,MEAN_MOTION_DDOT
IRIDIUM 33,1997-051C,2024-06-01T10:32:25.639296,14.34372576,0.000615,86.3847,302.7611,231.709,128.3553,0,U,24946,999,39815,0.00015619,4.59e-06,0
IRIDIUM 33 DEB,1997-051L,2024-06-01T10:26:48.376032,14.40855101,0.001075,86.3994,297.0573,191.5627,168.5327,0,U,33773,999,80286,0.00048437,1.572e-05,0
IRIDIUM 33 DEB,1997-051N,2024-06-01T10:59:03.546816,14.38446368,0.001441,86.3628,287.6234,201.8989,228.3802,0,U,33775,999,80091,0.00076975,2.37e-05,0
IRIDIUM 33 DEB,1997-051P,2024-06-01T12:44:31.062048,14.36241537,0.0013061,86.4028,315.1633,225.6279,207.6286,0,U,33776,999,80049,0.00040752,1.209e-05,0
IRIDIUM 33 DEB,1997-051Q,2024-06-01T08:36:26.799264,14.48160873,0.0009599,86.3797,276.9985,358.6618,1.4558,0,U,33777,999,80415,0.00077654,2.913e-05,0
IRIDIUM 33 DEB,1997-051T,2024-06-01T08:42:06.802272,14.38986256,0.001143,86.3411,270.0198,206.0592,212.8397,0,U,33850,999,80098,0.00085417,2.655e-05,0
IRIDIUM 33 DEB,1997-051W,2024-06-01T12:39:21.081312,13.94676191,0.0225731,86.0019,234.0805,147.2745,279.1463,0,U,33853,999,77537,0.0010985,1.836e-05,0
IRIDIUM 33 DEB,1997-051AC,2024-06-01T06:47:45.862944,14.60802487,0.0042939,86.3343,259.8416,152.0798,208.273,0,U,33859,999,80237,0.0034331,0.00017028,0
IRIDIUM 33 DEB,1997-051AD,2024-06-01T08:50:25.725120,14.54253157,0.0013433,86.387,272.1786,81.2291,338.2844,0,U,33860,999,80553,0.0015034,6.398e-05,0
IRIDIUM 33 DEB,1997-051AF,2024-06-01T10:19:58.141056,14.56444613,0.0060172,86.4098,281.5249,178.3173,249.1729,0,U,33862,999,80644,0.001044,4.774e-05,0
IRIDIUM 33 DEB,1997-051AH,2024-06-01T13:59:21.439392,14.72044534,0.0004902,86.2739,181.5118,291.6121,195.8862,0,U,33864,999,80763,0.0014849,9.356e-05,0
IRIDIUM 33 DEB,1997-051AK,2024-06-01T12:42:06.342048,14.2021875,0.0113076,86.3022,328.5989,148.5565,273.327,0,U,33866,999,78858,0.001795,4.106e-05,0
IRIDIUM 33 DEB,1997-051AL,2024-06-01T07:16:50.665152,14.75261477,0.0019151,86.4151,250.4801,226.7986,133.1633,0,U,33867,999,81123,0.0027429,0.00018667,0
IRIDIUM 33 DEB,1997-051AP,2024-06-01T09:46:17.442048,14.40391166,0.0020501,86.3745,296.9066,231.2098,182.3506,0,U,33870,999,80068,0.0010489,3.355e-05,0
IRIDIUM 33 DEB,1997-051AS,2024-06-01T13:45:55.666944,15.1267724,0.0018906,86.349,217.1624,173.2754,186.8743,0,U,33873,999,81087,0.0062236,0.00110817,0
IRIDIUM 33 DEB,1997-051AT,2024-06-01T07:20:40.237728,14.55694826,0.0037991,86.2794,261.3858,62.3259,350.8927,0,U,33874,999,79738,0.0033889,0.00014993,0
IRIDIUM 33 DEB,1997-051BA,2024-06-01T13:15:31.166784,14.39962478,0.005992,86.3924,346.3951,229.9889,184.1045,0,U,33881,999,79405,0.0019725,6.358e-05,0
IRIDIUM 33 DEB,1997-051BD,2024-06-01T08:59:59.413344,14.59592461,0.0015046,86.3772,258.9329,94.6163,333.2202,0,U,33884,999,80635,0.0018837,8.995e-05,0
IRIDIUM 33 DEB,1997-051BF,2024-06-01T11:45:08.354592,14.34762062,0.0012125,86.3811,302.2843,275.7593,149.7447,0,U,33886,999,80029,0.00026701,7.76e-06,0
IRIDIUM 33 DEB,1997-051BG,2024-06-01T07:10:29.009568,14.36167106,0.0004309,86.3064,244.1175,271.3462,149.885,0,U,33887,999,80132,0.00019548,5.89e-06,0
IRIDIUM 33 DEB,1997-051BH,2024-06-01T06:45:07.689600,14.91922855,0.0019408,86.3065,248.2875,142.8502,217.4073,0,U,33888,999,80252,0.007327,0.0007509,0
IRIDIUM 33 DEB,1997-051BM,2024-06-01T13:58:28.188480,15.16862468,0.001037,86.3284,210.0904,168.7785,191.3689,0,U,33952,999,81066,0.0054387,0.00108594,0
IRIDIUM 33 DEB,1997-051BN,2024-06-01T10:25:09.353856,14.46316334,0.00224,86.3879,294.6792,162.3649,256.1979,0,U,33953,999,80191,0.0015965,5.76e-05,0
IRIDIUM 33 DEB,1997-051BU,2024-06-01T09:49:14.375424,14.63990896,0.0053271,86.3626,301.8687,335.1225,24.742,0,U,33959,999,79798,0.0010504,5.639e-05,0
IRIDIUM 33 DEB,1997-051BV,2024-06-01T02:24:01.239840,14.59996993,0.0003125,86.2716,187.6581,140.5662,272.6461,0,U,33960,999,80629,0.001333,6.416e-05,0
IRIDIUM 33 DEB,1997-051CA,2024-06-01T06:28:57.110880,14.80497822,0.0011892,86.356,239.8748,198.4355,161.6437,0,U,33965,999,80790,0.0035022,0.00026931,0
IRIDIUM 33 DEB,1997-051CB,2024-06-01T10:08:18.775392,14.45091343,0.0005748,86.3918,285.132,269.5975,154.4627,0,U,33966,999,80350,0.00075196,2.647e-05,0
IRIDIUM 33 DEB,1997-051CE,2024-06-01T07:45:42.237792,14.44406974,0.0008819,86.3463,259.9356,160.1028,200.0519,0,U,34071,999,80243,0.00084466,2.93e-05,0
IRIDIUM 33 DEB,1997-051CL,2024-06-01T10:04:21.374976,14.50529945,0.0014624,86.3894,294.9717,113.9294,300.0188,0,U,34077,999,80182,0.0017824,7.009e-05,0
IRIDIUM 33 DEB,1997-051CN,2024-06-01T06:57:28.323360,14.61449874,0.0010423,86.3827,258.7177,110.2442,308.2985,0,U,34079,999,80740,0.0021301,0.00010584,0
