IRIDIUM 33              
1 24946U 97051C   24153.43918564  .00000459  00000+0  15619-3 0  9994
2 24946  86.3847 302.7611 0006150 231.7090 128.3553 14.34372576398152
IRIDIUM 33 DEB          
1 33773U 97051L   24153.43528213  .00001572  00000+0  48437-3 0  9991
2 33773  86.3994 297.0573 0010750 191.5627 168.5327 14.40855101802866
IRIDIUM 33 DEB          
1 33775U 97051N   24153.45767994  .00002370  00000+0  76975-3 0  9991
2 33775  86.3628 287.6234 0014410 201.8989 228.3802 14.38446368800919
IRIDIUM 33 DEB          
1 33776U 97051P   24153.53091507  .00001209  00000+0  40752-3 0  9995
2 33776  86.4028 315.1633 0013061 225.6279 207.6286 14.36241537800490
IRIDIUM 33 DEB          
1 33777U 97051Q   24153.35864351  .00002913  00000+0  77654-3 0  9995
2 33777  86.3797 276.9985 0009599 358.6618   1.4558 14.48160873804157
IRIDIUM 33 DEB          
1 33850U 97051T   24153.36257873  .00002655  00000+0  85417-3 0  9992
2 33850  86.3411 270.0198 0011430 206.0592 212.8397 14.38986256800983
IRIDIUM 33 DEB          
1 33853U 97051W   24153.52732733  .00001836  00000+0  10985-2 0  9993
2 33853  86.0019 234.0805 0225731 147.2745 279.1463 13.94676191775378
IRIDIUM 33 DEB          
1 33859U 97051AC  24153.28316971  .00017028  00000+0  34331-2 0  9995
2 33859  86.3343 259.8416 0042939 152.0798 208.2730 14.60802487802373
IRIDIUM 33 DEB          
1 33860U 97051AD  24153.36835330  .00006398  00000+0  15034-2 0  9998
2 33860  86.3870 272.1786 0013433  81.2291 338.2844 14.54253157805534
IRIDIUM 33 DEB          
1 33862U 97051AF  24153.43053404  .00004774  00000+0  10440-2 0  9994
2 33862  86.4098 281.5249 0060172 178.3173 249.1729 14.56444613806440
IRIDIUM 33 DEB          
1 33864U 97051AH  24153.58288703  .00009356  00000+0  14849-2 0  9992
2 33864  86.2739 181.5118 0004902 291.6121 195.8862 14.72044534807630
IRIDIUM 33 DEB          
1 33866U 97051AK  24153.52924007  .00004106  00000+0  17950-2 0  9996
2 33866  86.3022 328.5989 0113076 148.5565 273.3270 14.20218750788585
IRIDIUM 33 DEB          
1 33867U 97051AL  24153.30336418  .00018667  00000+0  27429-2 0  9995
2 33867  86.4151 250.4801 0019151 226.7986 133.1633 14.75261477811230
IRIDIUM 33 DEB          
1 33870U 97051AP  24153.40714632  .00003355  00000+0  10489-2 0  9994
2 33870  86.3745 296.9066 0020501 231.2098 182.3506 14.40391166800689
IRIDIUM 33 DEB          
1 33873U 97051AS  24153.57356096  .00110817  00000+0  62236-2 0  9990
2 33873  86.3490 217.1624 0018906 173.2754 186.8743 15.12677240810878
IRIDIUM 33 DEB          
1 33874U 97051AT  24153.30602127  .00014993  00000+0  33889-2 0  9991
2 33874  86.2794 261.3858 0037991  62.3259 350.8927 14.55694826797380
IRIDIUM 33 DEB          
1 33881U 97051BA  24153.55244406  .00006358  00000+0  19725-2 0  9997
2 33881  86.3924 346.3951 0059920 229.9889 184.1045 14.39962478794051
IRIDIUM 33 DEB          
1 33884U 97051BD  24153.37499321  .00008995  00000+0  18837-2 0  9990
2 33884  86.3772 258.9329 0015046  94.6163 333.2202 14.59592461806357
IRIDIUM 33 DEB          
1 33886U 97051BF  24153.48968003  .00000776  00000+0  26701-3 0  9991
2 33886  86.3811 302.2843 0012125 275.7593 149.7447 14.34762062800298
IRIDIUM 33 DEB          
1 33887U 97051BG  24153.29894687  .00000589  00000+0  19548-3 0  9990
2 33887  86.3064 244.1175 0004309 271.3462 149.8850 14.36167106801327
IRIDIUM 33 DEB          
1 33888U 97051BH  24153.28133900  .00075090  00000+0  73270-2 0  9994
2 33888  86.3065 248.2875 0019408 142.8502 217.4073 14.91922855802527
IRIDIUM 33 DEB          
1 33952U 97051BM  24153.58227070  .00108594  00000+0  54387-2 0  9995
2 33952  86.3284 210.0904 0010370 168.7785 191.3689 15.16862468810669
IRIDIUM 33 DEB          
1 33953U 97051BN  24153.43413604  .00005760  00000+0  15965-2 0  9990
2 33953  86.3879 294.6792 0022400 162.3649 256.1979 14.46316334801917
IRIDIUM 33 DEB          
1 33959U 97051BU  24153.40919416  .00005639  00000+0  10504-2 0  9994
2 33959  86.3626 301.8687 0053271 335.1225  24.7420 14.63990896797988
IRIDIUM 33 DEB          
1 33960U 97051BV  24153.10001435  .00006416  00000+0  13330-2 0  9990
2 33960  86.2716 187.6581 0003125 140.5662 272.6461 14.59996993806291
IRIDIUM 33 DEB          
1 33965U 97051CA  24153.27010545  .00026931  00000+0  35022-2 0  9991
2 33965  86.3560 239.8748 0011892 198.4355 161.6437 14.80497822807900
IRIDIUM 33 DEB          
1 33966U 97051CB  24153.42243953  .00002647  00000+0  75196-3 0  9995
2 33966  86.3918 285.1320 0005748 269.5975 154.4627 14.45091343803501
IRIDIUM 33 DEB          
1 34071U 97051CE  24153.32340553  .00002930  00000+0  84466-3 0  9991
2 34071  86.3463 259.9356 0008819 160.1028 200.0519 14.44406974802437
IRIDIUM 33 DEB          
1 34077U 97051CL  24153.41969184  .00007009  00000+0  17824-2 0  9999
2 34077  86.3894 294.9717 0014624 113.9294 300.0188 14.50529945801829
IRIDIUM 33 DEB          
1 34079U 97051CN  24153.28991115  .00010584  00000+0  21301-2 0  9992
2 34079  86.3827 258.7177 0010423 110.2442 308.2985 14.61449874807402
